STARLINK-31605          
1 59348U 24060A   24112.58334491 -.02178648  00000+0 -48570-1 0  9990
2 59348  42.9995 217.9018 0001321 289.6096  91.1142 15.46492757  4523
STARLINK-31532          
1 59349U 24060B   24112.91667824 -.00003900  00000+0 -64489-4 0  9993
2 59349  42.9998 215.9448 0001058 259.0920 186.7266 15.48921936  4634
STARLINK-31593          
1 59350U 24060C   24112.91667824  .00009866  00000+0  18434-3 0  9998
2 59350  42.9999 215.9398 0002051 271.8141 175.9507 15.48891442  4582
STARLINK-31555          
1 59351U 24060D   24112.91667824 -.00010398  00000+0 -18226-3 0  9992
2 59351  43.0000 215.9352 0001724 274.2480 175.4285 15.48904696  4637
STARLINK-31561          
1 59352U 24060E   24112.58334491 -.00049735  00000+0 -89811-3 0  9992
2 59352  42.9996 217.8768 0001251 289.0803 101.5663 15.48939828  4589
STARLINK-31413          
1 59353U 24060F   24112.91667824 -.00043054  00000+0 -77617-3 0  9998
2 59353  43.0000 215.9204 0001990 276.8647 178.5406 15.48930979  4589
STARLINK-31422          
1 59354U 24060G   24112.58334491 -.00010563  00000+0 -18522-3 0  9992
2 59354  42.9995 217.8721 0001671 263.7616 128.8203 15.48909600  4583
STARLINK-31416          
1 59355U 24060H   24112.58334491 -.00007810  00000+0 -13533-3 0  9991
2 59355  42.9995 217.8624 0001506 248.4106 148.0058 15.48906959  4583
STARLINK-31552          
1 59356U 24060J   24112.91667824  .00000745  00000+0  19528-4 0  9997
2 59356  42.9999 215.9107 0001788 270.9321 188.3077 15.48910586  4583
STARLINK-31557          
1 59357U 24060K   24112.91667824 -.00063886  00000+0 -11573-2 0  9995
2 59357  43.0000 215.9059 0001982 276.7241 184.4276 15.48941854  4586
STARLINK-31559          
1 59358U 24060L   24112.91667824 -.00070295  00000+0 -12751-2 0  9997
2 59358  42.9998 215.9012 0001570 270.5151 192.5551 15.48942192  4598
STARLINK-31501          
1 59359U 24060M   24112.91667824  .00024396  00000+0  44594-3 0  9998
2 59359  43.0000 215.8959 0001538 278.0962 186.8885 15.48901974  4589
STARLINK-31549          
1 59360U 24060N   24112.58334491  .00009539  00000+0  17836-3 0  9995
2 59360  42.9996 217.8328 0001674 260.9011 147.0011 15.48904841  4587
STARLINK-31560          
1 59361U 24060P   24112.91667824 -.00248669  00000+0 -46119-2 0  9998
2 59361  42.9995 215.4531 0001846 295.9043 347.5407 15.49052541  4590
STARLINK-31571          
1 59362U 24060Q   24112.58334491  .00047230  00000+0  85910-3 0  9995
2 59362  42.9995 217.8264 0001278 291.0481 119.3130 15.48771674  4583
STARLINK-31553          
1 59363U 24060R   24112.91667824 -.00010946  00000+0 -19212-3 0  9990
2 59363  42.9999 215.8758 0001945 266.0236 206.6318 15.48913115  4592
STARLINK-31547          
1 59364U 24060S   24112.58334491 -.02185300  00000+0 -46957-1 0  9998
2 59364  42.9995 217.8196 0001171 283.3544 129.5729 15.47556240  4581
STARLINK-31537          
1 59365U 24060T   24112.91667824 -.00019041  00000+0 -33897-3 0  9992
2 59365  42.9998 215.8659 0001898 268.0976 208.3884 15.48920342  4590
STARLINK-31451          
1 59366U 24060U   24112.91667824 -.00078048  00000+0 -14169-2 0  9995
2 59366  42.9998 215.8613 0002285 268.9445 209.4344 15.48958168  4592
STARLINK-31428          
1 59367U 24060V   24112.91667824 -.00014414  00000+0 -25486-3 0  9998
2 59367  42.9998 215.8569 0002087 262.3109 217.9819 15.48931560  4596
STARLINK-31419          
1 59368U 24060W   24112.91667824 -.00045780  00000+0 -82578-3 0  9994
2 59368  42.9999 215.8518 0002148 258.8579 223.3641 15.48937576  4598
STARLINK-31583          
1 59369U 24060X   24112.91667824  .00047875  00000+0  11464-2 0  9995
2 59369  42.9995 215.9722 0001556 264.7305 167.3452 15.40693447  4582
STARLINK-31461          
1 59370U 24060Y   24112.58334491 -.02185016  00000+0 -46287-1 0  9995
2 59370  42.9993 217.8531 0001667 273.7880 124.5493 15.47954897  4522
RESURS-P 4              
1 59371U 24061A   24112.83900175  .00011147  00000+0  36305-3 0  9994
2 59371  97.1815  67.5571 0001955  70.4973 289.6480 15.31999149  3291
SL-4 R/B                
1 59372U 24061B   24112.59028241  .00220800  16477-4  12153-2 0  9995
2 59372  97.2038  68.4562 0109199 338.9366  20.7416 15.71387475  3321
STARLINK-31641          
1 59374U 24062A   24112.83334491  .00164665  00000+0  36336-2 0  9997
2 59374  53.1592 220.9543 0000645 125.3703 134.3370 15.42803674  4315
STARLINK-31430          
1 59375U 24062B   24112.83334491 -.00272392  00000+0 -50232-2 0  9998
2 59375  53.1595 220.8861 0001237  98.0654 195.9629 15.49526295  4149
STARLINK-31695          
1 59376U 24062C   24112.83334491  .00022320  00000+0  40671-3 0  9998
2 59376  53.1596 220.8824 0001434  38.5359 257.3625 15.49415353  4141
STARLINK-31716          
1 59377U 24062D   24112.83334491 -.00086330  00000+0 -15569-2 0  9999
2 59377  53.1595 220.8779 0001544  72.2751 225.7025 15.49388220  4317
STARLINK-31710          
1 59378U 24062E   24112.58334491 -.00041888  00000+0 -74828-3 0  9995
2 59378  53.1595 222.0694 0001497  47.9267 296.8560 15.49339866  4153
STARLINK-31698          
1 59379U 24062F   24112.58334491 -.02171874  00000+0 -44991-1 0  9993
2 59379  53.1595 222.0650 0001434  87.1992 259.4330 15.48788207  4312
STARLINK-31680          
1 59380U 24062G   24112.58334491 -.00053946  00000+0 -96720-3 0  9991
2 59380  53.1596 222.0611 0001457  77.2380 271.4028 15.49348278  3990
STARLINK-31713          
1 59381U 24062H   24112.58334491 -.00095739  00000+0 -17308-2 0  9992
2 59381  53.1596 222.0573 0001859  51.4075 299.1585 15.49366673  4310
STARLINK-31705          
1 59382U 24062J   24112.83334491  .00066348  00000+0  11925-2 0  9992
2 59382  53.1594 220.8582 0001532  62.1390 245.5808 15.49270141  4140
STARLINK-31709          
1 59383U 24062K   24112.58334491 -.00095227  00000+0 -17209-2 0  9996
2 59383  53.1597 222.0490 0001359  61.0675 293.3542 15.49376269  4310
STARLINK-31715          
1 59384U 24062L   24112.83334491 -.00252972  00000+0 -46679-2 0  9990
2 59384  53.1596 220.8500 0001614  60.3192 251.2540 15.49434748  4316
STARLINK-31717          
1 59385U 24062M   24112.58334491  .00041313  00000+0  74772-3 0  9992
2 59385  53.1596 222.0411 0002005  67.3790 290.9714 15.49278467  4315
STARLINK-31688          
1 59386U 24062N   24112.83334491 -.02103111  00000+0 -49421-1 0  9991
2 59386  53.1598 220.8537 0000293  37.3445 271.9853 15.45071109  4317
STARLINK-31714          
1 59387U 24062P   24112.83334491 -.01702528  00000+0 -33774-1 0  9992
2 59387  53.1598 220.8337 0001375 108.0214 211.2448 15.49721194  4146
STARLINK-31643          
1 59388U 24062Q   24112.58334491 -.00037345  00000+0 -66587-3 0  9992
2 59388  53.1597 222.0331 0001344  74.5958 287.5809 15.49339500  4314
STARLINK-31647          
1 59389U 24062R   24112.58334491 -.00062490  00000+0 -11228-2 0  9993
2 59389  53.1597 222.0251 0001658  53.7297 312.3088 15.49350396  4311
STARLINK-31649          
1 59390U 24062S   24112.83334491  .00057619  00000+0  10375-2 0  9990
2 59390  53.1597 220.8258 0001132  75.1155 248.0606 15.49278920  4317
STARLINK-31644          
1 59391U 24062T   24112.58334491 -.00134515  00000+0 -30516-2 0  9995
2 59391  53.1594 222.0835 0001187  68.4163 267.7238 15.42971625  4318
STARLINK-31626          
1 59392U 24062U   24112.58334491 -.00093386  00000+0 -16874-2 0  9997
2 59392  53.1598 222.0132 0001483 119.1676 252.6646 15.49370545  4312
STARLINK-31443          
1 59393U 24062V   24112.83334491  .00031479  00000+0  11973-3 0  9995
2 59393  53.1614 218.4876 0000913 271.0036 122.7950 15.87324366  4330
STARLINK-31607          
1 59394U 24062W   24112.83334491  .00018307  00000+0  33664-3 0  9992
2 59394  53.1597 220.8099 0001444  78.9732 251.9474 15.49292253  4313
2024-063A               
1 59395U 24063A   24112.87747386  .00044114  00000+0  17956-2 0  9999
2 59395  34.9943  31.1538 0005016  78.3192 281.8085 15.23477241  2895
2024-063B               
1 59396U 24063B   24112.80641957  .00018642  00000+0  86975-3 0  9995
2 59396  34.7258  31.5775 0024963  53.4466 306.8536 15.18698823  2861
STARLINK-31608          
1 59397U 24062X   24112.83334491  .00041902  00000+0  75824-3 0  9996
2 59397  53.1598 220.8059 0001547 110.7715 222.0844 15.49277852  4108
STARLINK-31534          
1 59398U 24064A   24112.58334491 -.01714193  00000+0 -28748-1 0  9994
2 59398  43.0000  10.6280 0001711 252.4379 284.7565 15.54147113  3723
STARLINK-31544          
1 59399U 24064B   24112.58334491 -.01712443  00000+0 -28725-1 0  9996
2 59399  42.9999  10.6182 0001624 253.6106 287.4525 15.54138673  3787
STARLINK-31545          
1 59400U 24064C   24112.58334491 -.01713680  00000+0 -28745-1 0  9995
2 59400  43.0000  10.6231 0001472 253.6432 285.4867 15.54143111  3783
STARLINK-31507          
1 59401U 24064D   24112.58334491 -.01713624  00000+0 -28750-1 0  9990
2 59401  43.0001  10.6130 0001663 259.2310 283.7670 15.54135625  3720
STARLINK-31543          
1 59402U 24064E   24112.58334491 -.01716851  00000+0 -28810-1 0  9993
2 59402  43.0000  10.6085 0001826 258.7593 286.1712 15.54134586  3782
STARLINK-31366          
1 59403U 24064F   24112.58334491 -.01712412  00000+0 -28736-1 0  9990
2 59403  42.9998  10.6035 0001638 253.3300 293.5373 15.54127614  3789
STARLINK-31374          
1 59404U 24064G   24112.83334491  .01150300  00000+0  12015-1 0  9992
2 59404  42.9994   9.0801 0004931 239.3812 290.5105 15.60991894  3584
STARLINK-31400          
1 59405U 24064H   24112.58334491 -.01712753  00000+0 -28750-1 0  9996
2 59405  43.0000  10.5935 0001635 256.9204 293.8155 15.54120483  3782
STARLINK-31391          
1 59406U 24064J   24112.58334491 -.01711163  00000+0 -28724-1 0  9992
2 59406  43.0001  10.5884 0001689 249.8033 302.8663 15.54116345  3784
